IRIDIUM 112             
1 41925U 17003J   25087.45225538  .00000281  00000+0  93348-4 0  9999
2 41925  86.3904 274.5338 0002247  90.1763 269.9690 14.34220571429382
IRIDIUM 111             
1 41926U 17003K   25087.57909906 -.00000002  00000+0 -78076-5 0  9996
2 41926  86.3905 274.5414 0001889  88.5525 271.5887 14.34217230429450
IRIDIUM 113             
1 42803U 17039A   25087.76837101  .00000763  00000+0  26530-3 0  9996
2 42803  86.4002 148.3636 0002621  91.9440 268.2056 14.34217801407346
IRIDIUM 123             
1 42804U 17039B   25087.74008102  .00000545  00000+0  18737-3 0  9994
2 42804  86.4045 179.7962 0001971  92.1641 267.9781 14.34219041406109
IRIDIUM 120             
1 42805U 17039C   25087.69225926  .00000614  00000+0  21222-3 0  9994
2 42805  86.3993 148.2359 0001893 100.6784 259.4625 14.34218328407323
IRIDIUM 115             
1 42806U 17039D   25087.45993192  .00000915  00000+0  26605-3 0  9990
2 42806  86.4532 148.4002 0001874  79.8560 280.2852 14.43282162409973
IRIDIUM 118             
1 42807U 17039E   25087.35318462  .00000709  00000+0  24600-3 0  9995
2 42807  86.4044 179.9576 0002277  95.9093 264.2362 14.34218883406047
IRIDIUM 117             
1 42808U 17039F   25087.79082123  .00000680  00000+0  23589-3 0  9999
2 42808  86.4042 179.7370 0002105  88.5554 271.5883 14.34218134406145
